STARLINK-2732           
1 48646U 21044J   25208.85206060  .00000846  00000+0  75681-4 0  9991
2 48646  53.0553  50.9535 0001340  89.4193 270.6950 15.06392903230721
STARLINK-2521           
1 48648U 21044L   25208.86313927  .00001768  00000+0  13760-3 0  9998
2 48648  53.0565  51.0692 0001366  97.4433 262.6712 15.06388610230666
STARLINK-2673           
1 48649U 21044M   25208.84468801  .00003145  00000+0  22991-3 0  9996
2 48649  53.0552  50.9851 0001381  90.9361 269.1787 15.06399810230650
STARLINK-2672           
1 48650U 21044N   25208.84099917  .00001151  00000+0  96157-4 0  9997
2 48650  53.0552  51.0005 0001347  93.1302 266.9841 15.06392732230659
STARLINK-2731           
1 48651U 21044P   25208.04114785  .00000574  00000+0  57442-4 0  9993
2 48651  53.0554  54.5928 0001613  85.0524 275.0649 15.06394956229695
STARLINK-2727           
1 48652U 21044Q   25208.83363125  .00000876  00000+0  77734-4 0  9996
2 48652  53.0552  51.0379 0001378  86.4384 273.6762 15.06391137230659
STARLINK-2720           
1 48653U 21044R   25208.56455548  .00002913  00000+0  21437-3 0  9990
2 48653  53.0546  52.2467 0001319  80.2963 279.8175 15.06394513229772
STARLINK-2651           
1 48654U 21044S   25208.82626328  .00002093  00000+0  15941-3 0  9998
2 48654  53.0552  51.0734 0001461  92.4240 267.6916 15.06391144230716
STARLINK-2657           
1 48655U 21044T   25208.82257617  .00001938  00000+0  14901-3 0  9992
2 48655  53.0556  51.0902 0001192  99.3950 260.7174 15.06388366230658
STARLINK-2701           
1 48656U 21044U   25208.15541676  .00003241  00000+0  23639-3 0  9997
2 48656  53.0543  54.0816 0001499  88.6542 271.4619 15.06395130229715
STARLINK-2734           
1 48657U 21044V   25208.84738202  .00000542  00000+0  55270-4 0  9995
2 48657  53.0561  50.6169 0001392  90.9731 269.1417 15.06391588230723
STARLINK-2647           
1 48658U 21044W   25208.87786202  .00002116  00000+0  16094-3 0  9991
2 48658  53.0553  50.8381 0001300  91.3316 268.7821 15.06393339230726
STARLINK-2717           
1 48659U 21044X   25208.87417378  .00003091  00000+0  22632-3 0  9995
2 48659  53.0542  50.8535 0001209 100.6495 259.4630 15.06393990230667
STARLINK-2726           
1 48662U 21044AA  25208.27060680  .00002420  00000+0  18133-3 0  9999
2 48662  53.0542  43.5663 0001471  94.9870 265.1287 15.06387153229872
STARLINK-2667           
1 48663U 21044AB  25208.53229959  .00000818  00000+0  73844-4 0  9995
2 48663  53.0546  42.3934 0001396  85.7766 274.3382 15.06393518229918
STARLINK-2666           
1 48666U 21044AE  25208.81986266  .00000542  00000+0  55287-4 0  9995
2 48666  53.0557  41.5688 0001445  90.9693 269.1462 15.06390300230843
STARLINK-2735           
1 48667U 21044AF  25208.52493298  .00001346  00000+0  10929-3 0  9998
2 48667  53.0565  42.4214 0001264  94.8759 265.2374 15.06388077229916
