[{"OBJECT_NAME":"STARLINK-2732","OBJECT_ID":"2021-044J","EPOCH":"2025-07-27T20:26:58.035840","MEAN_MOTION":15.06392903,"ECCENTRICITY":0.000134,"INCLINATION":53.0553,"RA_OF_ASC_NODE":50.9535,"ARG_OF_PERICENTER":89.4193,"MEAN_ANOMALY":270.695,"EPHEMERIS_TYPE":0,"CLASSIFICATION_TYPE":"U","NORAD_CAT_ID":48646,"ELEMENT_SET_NO":999,"REV_AT_EPOCH":23072,"BSTAR":7.5681e-5,"MEAN_MOTION_DOT":8.46e-6,"MEAN_MOTION_DDOT":0},{"OBJECT_NAME":"STARLINK-2521","OBJECT_ID":"2021-044L","EPOCH":"2025-07-27T20:42:55.232928","MEAN_MOTION":15.0638861,"ECCENTRICITY":0.0001366,"INCLINATION":53.0565,"RA_OF_ASC_NODE":51.0692,"ARG_OF_PERICENTER":97.4433,"MEAN_ANOMALY":262.6712,"EPHEMERIS_TYPE":0,"CLASSIFICATION_TYPE":"U","NORAD_CAT_ID":48648,"ELEMENT_SET_NO":999,"REV_AT_EPOCH":23066,"BSTAR":0.0001376,"MEAN_MOTION_DOT":1.768e-5,"MEAN_MOTION_DDOT":0},{"OBJECT_NAME":"STARLINK-2673","OBJECT_ID":"2021-044M","EPOCH":"2025-07-27T20:16:21.044064","MEAN_MOTION":15.0639981,"ECCENTRICITY":0.0001381,"INCLINATION":53.0552,"RA_OF_ASC_NODE":50.9851,"ARG_OF_PERICENTER":90.9361,"MEAN_ANOMALY":269.1787,"EPHEMERIS_TYPE":0,"CLASSIFICATION_TYPE":"U","NORAD_CAT_ID":48649,"ELEMENT_SET_NO":999,"REV_AT_EPOCH":23065,"BSTAR":0.00022991,"MEAN_MOTION_DOT":3.145e-5,"MEAN_MOTION_DDOT":0},{"OBJECT_NAME":"STARLINK-2672","OBJECT_ID":"2021-044N","EPOCH":"2025-07-27T20:11:02.328288","MEAN_MOTION":15.06392732,"ECCENTRICITY":0.0001347,"INCLINATION":53.0552,"RA_OF_ASC_NODE":51.0005,"ARG_OF_PERICENTER":93.1302,"MEAN_ANOMALY":266.9841,"EPHEMERIS_TYPE":0,"CLASSIFICATION_TYPE":"U","NORAD_CAT_ID":48650,"ELEMENT_SET_NO":999,"REV_AT_EPOCH":23065,"BSTAR":9.6157e-5,"MEAN_MOTION_DOT":1.151e-5,"MEAN_MOTION_DDOT":0},{"OBJECT_NAME":"STARLINK-2731","OBJECT_ID":"2021-044P","EPOCH":"2025-07-27T00:59:15.174240","MEAN_MOTION":15.06394956,"ECCENTRICITY":0.0001613,"INCLINATION":53.0554,"RA_OF_ASC_NODE":54.5928,"ARG_OF_PERICENTER":85.0524,"MEAN_ANOMALY":275.0649,"EPHEMERIS_TYPE":0,"CLASSIFICATION_TYPE":"U","NORAD_CAT_ID":48651,"ELEMENT_SET_NO":999,"REV_AT_EPOCH":22969,"BSTAR":5.7442e-5,"MEAN_MOTION_DOT":5.74e-6,"MEAN_MOTION_DDOT":0},{"OBJECT_NAME":"STARLINK-2727","OBJECT_ID":"2021-044Q","EPOCH":"2025-07-27T20:00:25.740000","MEAN_MOTION":15.06391137,"ECCENTRICITY":0.0001378,"INCLINATION":53.0552,"RA_OF_ASC_NODE":51.0379,"ARG_OF_PERICENTER":86.4384,"MEAN_ANOMALY":273.6762,"EPHEMERIS_TYPE":0,"CLASSIFICATION_TYPE":"U","NORAD_CAT_ID":48652,"ELEMENT_SET_NO":999,"REV_AT_EPOCH":23065,"BSTAR":7.7734e-5,"MEAN_MOTION_DOT":8.76e-6,"MEAN_MOTION_DDOT":0},{"OBJECT_NAME":"STARLINK-2720","OBJECT_ID":"2021-044R","EPOCH":"2025-07-27T13:32:57.593472","MEAN_MOTION":15.06394513,"ECCENTRICITY":0.0001319,"INCLINATION":53.0546,"RA_OF_ASC_NODE":52.2467,"ARG_OF_PERICENTER":80.2963,"MEAN_ANOMALY":279.8175,"EPHEMERIS_TYPE":0,"CLASSIFICATION_TYPE":"U","NORAD_CAT_ID":48653,"ELEMENT_SET_NO":999,"REV_AT_EPOCH":22977,"BSTAR":0.00021437,"MEAN_MOTION_DOT":2.913e-5,"MEAN_MOTION_DDOT":0},{"OBJECT_NAME":"STARLINK-2651","OBJECT_ID":"2021-044S","EPOCH":"2025-07-27T19:49:49.147392","MEAN_MOTION":15.06391144,"ECCENTRICITY":0.0001461,"INCLINATION":53.0552,"RA_OF_ASC_NODE":51.0734,"ARG_OF_PERICENTER":92.424,"MEAN_ANOMALY":267.6916,"EPHEMERIS_TYPE":0,"CLASSIFICATION_TYPE":"U","NORAD_CAT_ID":48654,"ELEMENT_SET_NO":999,"REV_AT_EPOCH":23071,"BSTAR":0.00015941,"MEAN_MOTION_DOT":2.093e-5,"MEAN_MOTION_DDOT":0},{"OBJECT_NAME":"STARLINK-2657","OBJECT_ID":"2021-044T","EPOCH":"2025-07-27T19:44:30.581088","MEAN_MOTION":15.06388366,"ECCENTRICITY":0.0001192,"INCLINATION":53.0556,"RA_OF_ASC_NODE":51.0902,"ARG_OF_PERICENTER":99.395,"MEAN_ANOMALY":260.7174,"EPHEMERIS_TYPE":0,"CLASSIFICATION_TYPE":"U","NORAD_CAT_ID":48655,"ELEMENT_SET_NO":999,"REV_AT_EPOCH":23065,"BSTAR":0.00014901,"MEAN_MOTION_DOT":1.938e-5,"MEAN_MOTION_DDOT":0},{"OBJECT_NAME":"STARLINK-2701","OBJECT_ID":"2021-044U","EPOCH":"2025-07-27T03:43:48.008064","MEAN_MOTION":15.0639513,"ECCENTRICITY":0.0001499,"INCLINATION":53.0543,"RA_OF_ASC_NODE":54.0816,"ARG_OF_PERICENTER":88.6542,"MEAN_ANOMALY":271.4619,"EPHEMERIS_TYPE":0,"CLASSIFICATION_TYPE":"U","NORAD_CAT_ID":48656,"ELEMENT_SET_NO":999,"REV_AT_EPOCH":22971,"BSTAR":0.00023639,"MEAN_MOTION_DOT":3.241e-5,"MEAN_MOTION_DDOT":0},{"OBJECT_NAME":"STARLINK-2734","OBJECT_ID":"2021-044V","EPOCH":"2025-07-27T20:20:13.806528","MEAN_MOTION":15.06391588,"ECCENTRICITY":0.0001392,"INCLINATION":53.0561,"RA_OF_ASC_NODE":50.6169,"ARG_OF_PERICENTER":90.9731,"MEAN_ANOMALY":269.1417,"EPHEMERIS_TYPE":0,"CLASSIFICATION_TYPE":"U","NORAD_CAT_ID":48657,"ELEMENT_SET_NO":999,"REV_AT_EPOCH":23072,"BSTAR":5.527e-5,"MEAN_MOTION_DOT":5.42e-6,"MEAN_MOTION_DDOT":0},{"OBJECT_NAME":"STARLINK-2647","OBJECT_ID":"2021-044W","EPOCH":"2025-07-27T21:04:07.278528","MEAN_MOTION":15.06393339,"ECCENTRICITY":0.00013,"INCLINATION":53.0553,"RA_OF_ASC_NODE":50.8381,"ARG_OF_PERICENTER":91.3316,"MEAN_ANOMALY":268.7821,"EPHEMERIS_TYPE":0,"CLASSIFICATION_TYPE":"U","NORAD_CAT_ID":48658,"ELEMENT_SET_NO":999,"REV_AT_EPOCH":23072,"BSTAR":0.00016094,"MEAN_MOTION_DOT":2.116e-5,"MEAN_MOTION_DDOT":0},{"OBJECT_NAME":"STARLINK-2717","OBJECT_ID":"2021-044X","EPOCH":"2025-07-27T20:58:48.614592","MEAN_MOTION":15.0639399,"ECCENTRICITY":0.0001209,"INCLINATION":53.0542,"RA_OF_ASC_NODE":50.8535,"ARG_OF_PERICENTER":100.6495,"MEAN_ANOMALY":259.463,"EPHEMERIS_TYPE":0,"CLASSIFICATION_TYPE":"U","NORAD_CAT_ID":48659,"ELEMENT_SET_NO":999,"REV_AT_EPOCH":23066,"BSTAR":0.00022632,"MEAN_MOTION_DOT":3.091e-5,"MEAN_MOTION_DDOT":0},{"OBJECT_NAME":"STARLINK-2726","OBJECT_ID":"2021-044AA","EPOCH":"2025-07-27T06:29:40.427520","MEAN_MOTION":15.06387153,"ECCENTRICITY":0.0001471,"INCLINATION":53.0542,"RA_OF_ASC_NODE":43.5663,"ARG_OF_PERICENTER":94.987,"MEAN_ANOMALY":265.1287,"EPHEMERIS_TYPE":0,"CLASSIFICATION_TYPE":"U","NORAD_CAT_ID":48662,"ELEMENT_SET_NO":999,"REV_AT_EPOCH":22987,"BSTAR":0.00018133,"MEAN_MOTION_DOT":2.42e-5,"MEAN_MOTION_DDOT":0},{"OBJECT_NAME":"STARLINK-2667","OBJECT_ID":"2021-044AB","EPOCH":"2025-07-27T12:46:30.684576","MEAN_MOTION":15.06393518,"ECCENTRICITY":0.0001396,"INCLINATION":53.0546,"RA_OF_ASC_NODE":42.3934,"ARG_OF_PERICENTER":85.7766,"MEAN_ANOMALY":274.3382,"EPHEMERIS_TYPE":0,"CLASSIFICATION_TYPE":"U","NORAD_CAT_ID":48663,"ELEMENT_SET_NO":999,"REV_AT_EPOCH":22991,"BSTAR":7.3844e-5,"MEAN_MOTION_DOT":8.18e-6,"MEAN_MOTION_DDOT":0},{"OBJECT_NAME":"STARLINK-2666","OBJECT_ID":"2021-044AE","EPOCH":"2025-07-27T19:40:36.133824","MEAN_MOTION":15.063903,"ECCENTRICITY":0.0001445,"INCLINATION":53.0557,"RA_OF_ASC_NODE":41.5688,"ARG_OF_PERICENTER":90.9693,"MEAN_ANOMALY":269.1462,"EPHEMERIS_TYPE":0,"CLASSIFICATION_TYPE":"U","NORAD_CAT_ID":48666,"ELEMENT_SET_NO":999,"REV_AT_EPOCH":23084,"BSTAR":5.5287e-5,"MEAN_MOTION_DOT":5.42e-6,"MEAN_MOTION_DDOT":0},{"OBJECT_NAME":"STARLINK-2735","OBJECT_ID":"2021-044AF","EPOCH":"2025-07-27T12:35:54.209472","MEAN_MOTION":15.06388077,"ECCENTRICITY":0.0001264,"INCLINATION":53.0565,"RA_OF_ASC_NODE":42.4214,"ARG_OF_PERICENTER":94.8759,"MEAN_ANOMALY":265.2374,"EPHEMERIS_TYPE":0,"CLASSIFICATION_TYPE":"U","NORAD_CAT_ID":48667,"ELEMENT_SET_NO":999,"REV_AT_EPOCH":22991,"BSTAR":0.00010929,"MEAN_MOTION_DOT":1.346e-5,"MEAN_MOTION_DDOT":0}]
